STARLINK-31446          
1 59315U 24056V   26068.46796232 -.00002408  00000+0 -77996-4 0  9998
2 59315  43.0026 231.6832 0000804 272.0223  88.0536 15.27588134111125
FLOCK 4G-15             
1 62678U 25009BX  26068.71779869  .00012647  00000+0  47575-3 0  9991
2 62678  97.4054 151.1927 0003699 316.8208  43.2740 15.27266411121358
